{
  "type": "Feature",
  "bbox": [
    127.0206453,
    37.649897,
    127.02717,
    37.6544452
  ],
  "properties": {
    "name": "쌍문 근린공원 · 동네길 예시 러닝",
    "demo": true,
    "actualUserRun": false,
    "source": "OpenStreetMap contributors",
    "sourceUrl": "https://www.openstreetmap.org/api/0.6/map?bbox=127.016,37.647,127.028,37.658",
    "attribution": "© OpenStreetMap contributors · ODbL",
    "downloadedAt": "2026-09-07",
    "description": "실제 OSM 보행로와 생활도로 노드를 연결한 편집기·지도 테스트용 폐회로입니다. 실제 사용자 운동 기록이 아니며 현장 통행 가능 여부는 별도 확인해야 합니다.",
    "distanceMeters": 2008,
    "closedLoop": true,
    "suggestedZoom": 17,
    "sourceWayIds": [
      "1484771686",
      "1484771687",
      "1491846860",
      "504903631",
      "1491846861",
      "484694952",
      "505438065",
      "504934253",
      "504934256",
      "381668701",
      "519590173",
      "913826148",
      "913826146",
      "381668715",
      "381668708",
      "795569281",
      "381668705",
      "519590171",
      "381668711",
      "381668710",
      "381668729"
    ],
    "sourceNodeIds": [
      "13587540034",
      "13587540033",
      "13587540032",
      "13587540031",
      "13587540030",
      "13587540029",
      "13587540028",
      "13587540027",
      "13587540026",
      "13587540025",
      "13587540024",
      "13587540023",
      "13587540022",
      "13587540021",
      "13587540020",
      "13587540019",
      "13587540018",
      "13587540017",
      "13587540016",
      "13587540015",
      "13587540014",
      "13587540013",
      "13587540012",
      "13587540011",
      "13587540010",
      "13587540009",
      "13587540008",
      "13587540007",
      "13587540006",
      "13587540005",
      "13587540004",
      "13587540003",
      "13587540002",
      "13587540001",
      "13587540000",
      "13587539999",
      "13587539998",
      "13587539995",
      "13587539994",
      "13587539993",
      "13613321973",
      "13587539992",
      "13587539991",
      "13587539990",
      "13587539989",
      "13587539988",
      "4949971755",
      "4949971756",
      "4949971757",
      "13668825856",
      "4949971758",
      "4949971759",
      "13668825844",
      "4949971760",
      "4778004498",
      "4778004497",
      "4778004496",
      "4778004495",
      "4778004494",
      "4778004493",
      "4778004492",
      "4778004491",
      "4778004490",
      "4778004489",
      "4778004488",
      "4778004487",
      "13613321963",
      "4778004486",
      "4778004485",
      "4774462587",
      "4774462586",
      "4774462585",
      "4774462584",
      "4774462583",
      "4774462582",
      "4953917775",
      "4953917774",
      "4953917773",
      "4950149980",
      "4950149981",
      "4950149982",
      "4950149983",
      "4950149984",
      "4950149985",
      "4950149986",
      "4950149987",
      "4950149992",
      "4950149993",
      "4950149994",
      "4950149995",
      "4950149996",
      "4953917812",
      "3848336068",
      "8488768984",
      "8488768975",
      "8488768974",
      "8488768975",
      "8488768984",
      "3848336001",
      "4953917781",
      "3848335990",
      "3848336040",
      "4139302126",
      "3848336021",
      "3848336020",
      "3845062175",
      "4949981235",
      "4949981240",
      "3848336032",
      "3848336031",
      "3848336033",
      "3848336030",
      "3846068671",
      "3848336079",
      "13587540034"
    ],
    "roadNames": [
      "우이천로32길",
      "우이천로38가길",
      "우이천로34길",
      "우이천로38나길",
      "노해로41길",
      "footway",
      "우이천로38길",
      "service"
    ]
  },
  "geometry": {
    "type": "LineString",
    "coordinates": [
      [
        127.0216981,
        37.6527011
      ],
      [
        127.0216245,
        37.6526931
      ],
      [
        127.021495,
        37.6529663
      ],
      [
        127.021442,
        37.653065
      ],
      [
        127.0213908,
        37.6531379
      ],
      [
        127.0212475,
        37.6532214
      ],
      [
        127.0212071,
        37.6532619
      ],
      [
        127.0211469,
        37.6533153
      ],
      [
        127.0210566,
        37.6533196
      ],
      [
        127.0210367,
        37.6533458
      ],
      [
        127.020782,
        37.6534712
      ],
      [
        127.0207043,
        37.6534707
      ],
      [
        127.0206706,
        37.6534459
      ],
      [
        127.0206959,
        37.6535732
      ],
      [
        127.0206591,
        37.6536228
      ],
      [
        127.0206453,
        37.6536533
      ],
      [
        127.020735,
        37.6537649
      ],
      [
        127.0208675,
        37.6538249
      ],
      [
        127.0209687,
        37.6538488
      ],
      [
        127.0210795,
        37.6538602
      ],
      [
        127.0211686,
        37.6538478
      ],
      [
        127.021289,
        37.6539227
      ],
      [
        127.0213312,
        37.6539155
      ],
      [
        127.0213992,
        37.6539689
      ],
      [
        127.0214552,
        37.6540342
      ],
      [
        127.0215028,
        37.6541372
      ],
      [
        127.0215745,
        37.6542297
      ],
      [
        127.0215901,
        37.6542798
      ],
      [
        127.0216365,
        37.6543356
      ],
      [
        127.0217033,
        37.6543871
      ],
      [
        127.0218274,
        37.6544452
      ],
      [
        127.0218521,
        37.6544319
      ],
      [
        127.0218358,
        37.6543689
      ],
      [
        127.0218479,
        37.6543031
      ],
      [
        127.021896,
        37.654276
      ],
      [
        127.0219858,
        37.6542717
      ],
      [
        127.0220966,
        37.654285
      ],
      [
        127.0223509,
        37.6543894
      ],
      [
        127.0224662,
        37.654412
      ],
      [
        127.0225976,
        37.6544292
      ],
      [
        127.0228217,
        37.6543954
      ],
      [
        127.0229591,
        37.6543747
      ],
      [
        127.0230169,
        37.6543658
      ],
      [
        127.0231843,
        37.6543375
      ],
      [
        127.0233186,
        37.6543031
      ],
      [
        127.0234348,
        37.6543132
      ],
      [
        127.0235956,
        37.6542953
      ],
      [
        127.0238197,
        37.6541923
      ],
      [
        127.023978,
        37.6541519
      ],
      [
        127.0240329,
        37.6541519
      ],
      [
        127.0241013,
        37.6541519
      ],
      [
        127.0242918,
        37.654205
      ],
      [
        127.024448,
        37.6542164
      ],
      [
        127.0244956,
        37.6542199
      ],
      [
        127.0246052,
        37.6542487
      ],
      [
        127.0248006,
        37.6542203
      ],
      [
        127.0248527,
        37.6541971
      ],
      [
        127.0249179,
        37.6541739
      ],
      [
        127.025009,
        37.6541687
      ],
      [
        127.0251719,
        37.6542306
      ],
      [
        127.0252826,
        37.6542358
      ],
      [
        127.0254129,
        37.6540965
      ],
      [
        127.0254487,
        37.654063
      ],
      [
        127.0255399,
        37.6540037
      ],
      [
        127.0256702,
        37.653965
      ],
      [
        127.0257867,
        37.6539642
      ],
      [
        127.0258797,
        37.6539108
      ],
      [
        127.0259389,
        37.6538768
      ],
      [
        127.0260479,
        37.6538103
      ],
      [
        127.0262058,
        37.6537732
      ],
      [
        127.0263175,
        37.6537613
      ],
      [
        127.0264077,
        37.6537256
      ],
      [
        127.0264851,
        37.653746
      ],
      [
        127.0265474,
        37.6537187
      ],
      [
        127.0265968,
        37.653717
      ],
      [
        127.0265897,
        37.6536417
      ],
      [
        127.0268311,
        37.6535588
      ],
      [
        127.0270429,
        37.6534548
      ],
      [
        127.027111,
        37.653268
      ],
      [
        127.02717,
        37.6530939
      ],
      [
        127.0270895,
        37.6529537
      ],
      [
        127.0269822,
        37.6528645
      ],
      [
        127.0269339,
        37.6527456
      ],
      [
        127.0267891,
        37.6525885
      ],
      [
        127.026714,
        37.6524738
      ],
      [
        127.0266657,
        37.6522402
      ],
      [
        127.0264266,
        37.6522047
      ],
      [
        127.0263052,
        37.6521233
      ],
      [
        127.0261604,
        37.6521381
      ],
      [
        127.0260904,
        37.6520863
      ],
      [
        127.0258148,
        37.6519973
      ],
      [
        127.0255781,
        37.6515076
      ],
      [
        127.0253736,
        37.6509712
      ],
      [
        127.0252859,
        37.6507411
      ],
      [
        127.0251977,
        37.6507496
      ],
      [
        127.0253071,
        37.6514359
      ],
      [
        127.0251977,
        37.6507496
      ],
      [
        127.0252859,
        37.6507411
      ],
      [
        127.0250252,
        37.6500575
      ],
      [
        127.0249144,
        37.6500738
      ],
      [
        127.0244273,
        37.6501454
      ],
      [
        127.0240431,
        37.6502502
      ],
      [
        127.0236653,
        37.649897
      ],
      [
        127.0232032,
        37.6501856
      ],
      [
        127.0226604,
        37.6505271
      ],
      [
        127.0226822,
        37.6505505
      ],
      [
        127.0227758,
        37.6506469
      ],
      [
        127.022882,
        37.6507563
      ],
      [
        127.0230557,
        37.6509351
      ],
      [
        127.0222442,
        37.6518406
      ],
      [
        127.0219534,
        37.6521254
      ],
      [
        127.0218112,
        37.6522646
      ],
      [
        127.0217719,
        37.6523762
      ],
      [
        127.0216918,
        37.6525768
      ],
      [
        127.0216981,
        37.6527011
      ]
    ]
  }
}
